GSAT-29                 
1 43698U 18089A   26183.59352762  .00000096  00000+0  00000+0 0  9998
2 43698   0.0721 259.4165 0003612 178.2837 111.6228  1.00272490 27940
ES'HAIL 2               
1 43700U 18090A   26183.58772093  .00000155  00000+0  00000+0 0  9992
2 43700   0.0179  32.1056 0002254 104.8137  21.0737  1.00273103 27834
GEO-KOMPSAT-2A          
1 43823U 18100A   26183.32283275 -.00000333  00000+0  00000+0 0  9990
2 43823   0.0475 176.1594 0002257 277.9346  70.7403  1.00269062 27786
GSAT-11                 
1 43824U 18100B   26183.45472301 -.00000067  00000+0  00000+0 0  9999
2 43824   0.0797 265.3964 0008146 188.4068  64.4104  1.00271964 27632
GSAT-7A                 
1 43864U 18105A   26183.57105927  .00000037  00000+0  00000+0 0  9994
2 43864   0.0542  93.8721 0002131 358.0247  97.1120  1.00270245 27600
COSMOS 2533             
1 43867U 18107A   26182.17066898 -.00000027  00000+0  00000+0 0  9997
2 43867   0.0447 105.0656 0000158 138.2548 167.3342  1.00267916 27583
TJS-3                   
1 43874U 18110A   26183.77045742 -.00000207  00000+0  00000+0 0  9991
2 43874   2.5826  80.3162 0002326  74.4390 191.5459  1.00275771 27576
ZHONGXING-2D            
1 43920U 19001A   26183.47995027 -.00000326  00000+0  00000+0 0  9992
2 43920   0.0324 114.2793 0001089 243.9797 225.0709  1.00270746 54231
HELLAS-SAT 4 & SGS-1    
1 44034U 19007A   26183.30511236  .00000163  00000+0  00000+0 0  9991
2 44034   0.0708 130.0978 0005161   6.2217 292.8791  1.00272500 27511
GSAT-31                 
1 44035U 19007B   26183.59205427  .00000136  00000+0  00000+0 0  9995
2 44035   0.0455 217.8170 0000455 173.4979 150.3118  1.00273172 27126
NUSANTARA SATU          
1 44048U 19009A   26183.33100250 -.00000224  00000+0  00000+0 0  9990
2 44048   0.0335 122.6310 0004882 357.7756  65.1379  1.00271134 26929
ZHONGXING-6C            
1 44067U 19012A   26183.47995034 -.00000325  00000+0  00000+0 0  9994
2 44067   0.0627  67.3634 0014802 344.9525 171.4138  1.00271597 26896
WGS 10 (USA 291)        
1 44071U 19014A   26183.59837854  .00000057  00000+0  00000+0 0  9990
2 44071   0.0181  35.1576 0000210  59.0477 102.1476  1.00272315 26774
TIANLIAN 2-01           
1 44076U 19017A   26183.59786553 -.00000096  00000+0  00000+0 0  9991
2 44076   0.5775  83.1222 0001397  52.8853  76.8818  1.00272167 26806
ARABSAT-6A              
1 44186U 19021A   26183.30346569  .00000164  00000+0  00000+0 0  9991
2 44186   0.0463   9.6236 0000985 340.7725  69.6327  1.00278132 26302
BEIDOU-3 IGSO-1         
1 44204U 19023A   26183.47426241 -.00000196  00000+0  00000+0 0  9994
2 44204  58.7158  37.4930 0025646 224.0854 308.4094  1.00287681  7361
BEIDOU-2 G8             
1 44231U 19027A   26183.48605309 -.00000239  00000+0  00000+0 0  9991
2 44231   1.6953  74.5163 0009644 285.2295 240.1693  1.00267327 26238
YAMAL 601               
1 44307U 19031A   26182.45156723  .00000130  00000+0  00000+0 0  9996
2 44307   0.0192  75.0022 0002777  21.7632  34.3018  1.00272362 26079
AT&T T-16               
1 44333U 19034A   26183.33794516 -.00000105  00000+0  00000+0 0  9997
2 44333   0.0170  65.0064 0000418 285.9116 310.2612  1.00273787 25785
EUTELSAT 7C             
1 44334U 19034B   26183.58399425  .00000059  00000+0  00000+0 0  9992
2 44334   0.0747 181.5213 0003507 265.2916  51.0614  1.00271571  6990
BEIDOU-3 IGSO-2         
1 44337U 19035A   26183.59926508 -.00000100  00000+0  00000+0 0  9993
2 44337  55.2498 158.7271 0039582 216.3055 240.4952  1.00262088 25826
COSMOS 2539             
1 44457U 19048A   26181.91364176  .00000092  00000+0  00000+0 0  9990
2 44457   0.0368  92.2011 0000520 345.6977 181.9856  1.00274258 25369
EDRS-C                  
1 44475U 19049A   26183.48505372  .00000000  00000+0  00000+0 0  9999
2 44475   0.0142  63.1051 0001216  53.7695 120.8002  1.00271547 25360
INTELSAT 39 (IS-39)     
1 44476U 19049B   26183.45229633  .00000000  00000+0  00000+0 0  9990
2 44476   0.0215  27.0738 0000954 315.5013 162.6960  1.00269540 25282
AMOS-17                 
1 44479U 19050A   26183.58598758  .00000120  00000+0  00000+0 0  9999
2 44479   0.0350 302.9978 0002513 192.9242  12.6705  1.00274212 25340
AEHF-5 (USA 292)        
1 44481U 19051A   26183.58125398 -.00000246  00000+0  00000+0 0  9999
2 44481   1.4404 337.3452 0065581 359.3107 246.2808  1.00269396 25414
EUTELSAT 5 WEST B       
1 44624U 19067A   26183.29644566 -.00000032  00000+0  00000+0 0  9999
2 44624   0.0705 330.7489 0003427 130.2710 281.0395  1.00271480 24588
MEV-1                   
1 44625U 19067B   26167.92963140 -.00000149  00000+0  00000+0 0  9993
2 44625   0.8740 268.9828 0002794 179.8034 307.2103  1.00269616 61744
TJS-4                   
1 44637U 19070A   26183.67581578 -.00000159  00000+0  00000+0 0  9992
2 44637   0.0532  86.2275 0003969 321.9613 199.3724  1.00272153 24695
TIBA-1                  
1 44800U 19080A   26183.44703807  .00000166  00000+0  00000+0 0  9998
2 44800   0.0530  17.5355 0002256  92.1743   7.1963  1.00271593 24216
INMARSAT GX5            
1 44801U 19080B   26183.58477425  .00000086  00000+0  00000+0 0  9999
2 44801   0.0340   0.9859 0002252  99.7082  41.4818  1.00275052  6940
JCSAT-18 (KACIFIC 1)    
1 44868U 19091A   26183.59453708 -.00000190  00000+0  00000+0 0  9990
2 44868   0.0341 206.6671 0000409 314.1991 123.8026  1.00272168 24161
