OBJECT_NAME,OBJECT_ID,EPOCH,MEAN_MOTION,ECCENTRICITY,INCLINATION,RA_OF_ASC_NODE,ARG_OF_PERICENTER,MEAN_ANOMALY,EPHEMERIS_TYPE,CLASSIFICATION_TYPE,NORAD_CAT_ID,ELEMENT_SET_NO,REV_AT_EPOCH,BSTAR,MEAN_MOTION_DOT,MEAN_MOTION_DDOT
GSAT-29,2018-089A,2026-07-02T14:14:40.786368,1.00272490,.00036127,0.0721,259.4165,178.2837,111.6228,0,U,43698,999,2794,0,.96E-6,0
ES'HAIL 2,2018-090A,2026-07-02T14:06:19.088352,1.00273103,.00022542,0.0179,32.1056,104.8137,21.0737,0,U,43700,999,2783,0,.155E-5,0
GEO-KOMPSAT-2A,2018-100A,2026-07-02T07:44:52.749600,1.00269062,.00022577,0.0475,176.1594,277.9346,70.7403,0,U,43823,999,2778,0,-.333E-5,0
GSAT-11,2018-100B,2026-07-02T10:54:48.068064,1.00271964,.00081465,0.0797,265.3964,188.4068,64.4104,0,U,43824,999,2763,0,-.67E-6,0
GSAT-7A,2018-105A,2026-07-02T13:42:19.520928,1.00270245,.00021314,0.0542,93.8721,358.0247,97.1120,0,U,43864,999,2760,0,.37E-6,0
COSMOS 2533,2018-107A,2026-07-01T04:05:45.799872,1.00267916,.0000158,0.0447,105.0656,138.2548,167.3342,0,U,43867,999,2758,0,-.27E-6,0
TJS-3,2018-110A,2026-07-02T18:29:27.521088,1.00275771,.0002326,2.5826,80.3162,74.4390,191.5459,0,U,43874,999,2757,0,-.207E-5,0
ZHONGXING-2D,2019-001A,2026-07-02T11:31:07.703328,1.00270746,.00010891,0.0324,114.2793,243.9797,225.0709,0,U,43920,999,5423,0,-.326E-5,0
HELLAS-SAT 4 & SGS-1,2019-007A,2026-07-02T07:19:21.707904,1.00272500,.00051619,0.0708,130.0978,6.2217,292.8791,0,U,44034,999,2751,0,.163E-5,0
GSAT-31,2019-007B,2026-07-02T14:12:33.488928,1.00273172,.00004551,0.0455,217.8170,173.4979,150.3118,0,U,44035,999,2712,0,.136E-5,0
NUSANTARA SATU,2019-009A,2026-07-02T07:56:38.616000,1.00271134,.00048823,0.0335,122.6310,357.7756,65.1379,0,U,44048,999,2692,0,-.224E-5,0
ZHONGXING-6C,2019-012A,2026-07-02T11:31:07.709376,1.00271597,.00148023,0.0627,67.3634,344.9525,171.4138,0,U,44067,999,2689,0,-.325E-5,0
WGS 10 (USA 291),2019-014A,2026-07-02T14:21:39.905856,1.00272315,.00002108,0.0181,35.1576,59.0477,102.1476,0,U,44071,999,2677,0,.57E-6,0
TIANLIAN 2-01,2019-017A,2026-07-02T14:20:55.581792,1.00272167,.00013979,0.5775,83.1222,52.8853,76.8818,0,U,44076,999,2680,0,-.96E-6,0
ARABSAT-6A,2019-021A,2026-07-02T07:16:59.435616,1.00278132,.00009852,0.0463,9.6236,340.7725,69.6327,0,U,44186,999,2630,0,.164E-5,0
BEIDOU-3 IGSO-1,2019-023A,2026-07-02T11:22:56.272224,1.00287681,.00256465,58.7158,37.4930,224.0854,308.4094,0,U,44204,999,736,0,-.196E-5,0
BEIDOU-2 G8,2019-027A,2026-07-02T11:39:54.986976,1.00267327,.00096446,1.6953,74.5163,285.2295,240.1693,0,U,44231,999,2623,0,-.239E-5,0
YAMAL 601,2019-031A,2026-07-01T10:50:15.408672,1.00272362,.00027772,0.0192,75.0022,21.7632,34.3018,0,U,44307,999,2607,0,.13E-5,0
AT&T T-16,2019-034A,2026-07-02T08:06:38.461824,1.00273787,.00004185,0.0170,65.0064,285.9116,310.2612,0,U,44333,999,2578,0,-.105E-5,0
EUTELSAT 7C,2019-034B,2026-07-02T14:00:57.103200,1.00271571,.00035076,0.0747,181.5213,265.2916,51.0614,0,U,44334,999,699,0,.59E-6,0
BEIDOU-3 IGSO-2,2019-035A,2026-07-02T14:22:56.502912,1.00262088,.00395828,55.2498,158.7271,216.3055,240.4952,0,U,44337,999,2582,0,-.1E-5,0
COSMOS 2539,2019-048A,2026-06-30T21:55:38.648064,1.00274258,.000052,0.0368,92.2011,345.6977,181.9856,0,U,44457,999,2536,0,.92E-6,0
EDRS-C,2019-049A,2026-07-02T11:38:28.641408,1.00271547,.00012162,0.0142,63.1051,53.7695,120.8002,0,U,44475,999,2536,0,0,0
INTELSAT 39 (IS-39),2019-049B,2026-07-02T10:51:18.402912,1.00269540,.00009544,0.0215,27.0738,315.5013,162.6960,0,U,44476,999,2528,0,0,0
AMOS-17,2019-050A,2026-07-02T14:03:49.326912,1.00274212,.00025132,0.0350,302.9978,192.9242,12.6705,0,U,44479,999,2534,0,.12E-5,0
AEHF-5 (USA 292),2019-051A,2026-07-02T13:57:00.343872,1.00269396,.00655818,1.4404,337.3452,359.3107,246.2808,0,U,44481,999,2541,0,-.246E-5,0
EUTELSAT 5 WEST B,2019-067A,2026-07-02T07:06:52.905024,1.00271480,.00034276,0.0705,330.7489,130.2710,281.0395,0,U,44624,999,2458,0,-.32E-6,0
MEV-1,2019-067B,2026-06-16T22:18:40.152960,1.00269616,.00027946,0.8740,268.9828,179.8034,307.2103,0,U,44625,999,6174,0,-.149E-5,0
TJS-4,2019-070A,2026-07-02T16:13:10.483392,1.00272153,.00039695,0.0532,86.2275,321.9613,199.3724,0,U,44637,999,2469,0,-.159E-5,0
TIBA-1,2019-080A,2026-07-02T10:43:44.089248,1.00271593,.00022566,0.0530,17.5355,92.1743,7.1963,0,U,44800,999,2421,0,.166E-5,0
INMARSAT GX5,2019-080B,2026-07-02T14:02:04.495200,1.00275052,.00022529,0.0340,0.9859,99.7082,41.4818,0,U,44801,999,694,0,.86E-6,0
JCSAT-18 (KACIFIC 1),2019-091A,2026-07-02T14:16:08.003712,1.00272168,.00004096,0.0341,206.6671,314.1991,123.8026,0,U,44868,999,2416,0,-.19E-5,0
